start=new Date('2022-07-01T00:00:00.000Z').valueOf();
sats=[{"TLE_LINE1":"1 52644U 22052AY  22181.91667824  .00067336  00000-0  48168-3 0  9994","DECAY_DATE":null,"APOAPSIS":"352.106","OBJECT_ID":"2022-052AY","PERIOD":"91.537","INCLINATION":"53.2138","EPOCH":"2022-06-30T22:00:00.999936","ELEMENT_SET_NO":"999","MEAN_MOTION_DOT":"0.00067336","EPHEMERIS_TYPE":"0","OBJECT_NAME":"STARLINK-3985","TIME_SYSTEM":"UTC","GP_ID":"207179494","PERIAPSIS":"347.808","COUNTRY_CODE":"US","BSTAR":"0.00048168000000","MEAN_ELEMENT_THEORY":"SGP4","LAUNCH_DATE":"2022-05-14","CLASSIFICATION_TYPE":"U","MEAN_MOTION":"15.73131049","TLE_LINE2":"2 52644  53.2138 206.5855 0003194   7.5522 211.5079 15.73131049  1307","RA_OF_ASC_NODE":"206.5855","ARG_OF_PERICENTER":"7.5522","REV_AT_EPOCH":"130","FILE":"3505946","REF_FRAME":"TEME","CENTER_NAME":"EARTH","MEAN_ANOMALY":"211.5079","ECCENTRICITY":"0.00031940","SEMIMAJOR_AXIS":"6728.092","OBJECT_TYPE":"PAYLOAD","NORAD_CAT_ID":"52644","SITE":"AFETR","RCS_SIZE":"LARGE","MEAN_MOTION_DDOT":"0.0000000000000"},{"PERIOD":"91.528","OBJECT_ID":"2022-052AZ","APOAPSIS":"351.316","DECAY_DATE":null,"TLE_LINE1":"1 52645U 22052AZ  22181.91667824 -.00008315  00000-0 -54666-4 0  9990","EPOCH":"2022-06-30T22:00:00.999936","INCLINATION":"53.2131","ELEMENT_SET_NO":"999","MEAN_MOTION_DOT":"-0.00008315","PERIAPSIS":"347.744","GP_ID":"207180049","EPHEMERIS_TYPE":"0","TIME_SYSTEM":"UTC","OBJECT_NAME":"STARLINK-3973","MEAN_ELEMENT_THEORY":"SGP4","BSTAR":"-0.00005466600000","COUNTRY_CODE":"US","RA_OF_ASC_NODE":"206.5783","TLE_LINE2":"2 52645  53.2131 206.5783 0002655  16.7210 205.6097 15.73280806  1308","MEAN_MOTION":"15.73280806","LAUNCH_DATE":"2022-05-14","CLASSIFICATION_TYPE":"U","REV_AT_EPOCH":"130","ARG_OF_PERICENTER":"16.7210","CENTER_NAME":"EARTH","MEAN_ANOMALY":"205.6097","REF_FRAME":"TEME","FILE":"3505946","ECCENTRICITY":"0.00026550","OBJECT_TYPE":"PAYLOAD","SEMIMAJOR_AXIS":"6727.665","SITE":"AFETR","RCS_SIZE":"LARGE","NORAD_CAT_ID":"52645","MEAN_MOTION_DDOT":"0.0000000000000"},{"ECCENTRICITY":"0.00026770","CENTER_NAME":"EARTH","MEAN_ANOMALY":"208.3337","REF_FRAME":"TEME","FILE":"3505946","REV_AT_EPOCH":"130","ARG_OF_PERICENTER":"12.4115","RA_OF_ASC_NODE":"206.5819","MEAN_MOTION":"15.73184018","TLE_LINE2":"2 52646  53.2143 206.5819 0002677  12.4115 208.3337 15.73184018  1308","LAUNCH_DATE":"2022-05-14","CLASSIFICATION_TYPE":"U","MEAN_MOTION_DDOT":"0.0000000000000","RCS_SIZE":"LARGE","SITE":"AFETR","NORAD_CAT_ID":"52646","OBJECT_TYPE":"PAYLOAD","SEMIMAJOR_AXIS":"6727.941","ELEMENT_SET_NO":"999","EPOCH":"2022-06-30T22:00:00.999936","INCLINATION":"53.2143","PERIOD":"91.534","OBJECT_ID":"2022-052BA","APOAPSIS":"351.607","DECAY_DATE":null,"TLE_LINE1":"1 52646U 22052BA  22181.91667824  .00062427  00000-0  44617-3 0  9997","MEAN_ELEMENT_THEORY":"SGP4","BSTAR":"0.00044617000000","COUNTRY_CODE":"US","PERIAPSIS":"348.005","GP_ID":"207179595","EPHEMERIS_TYPE":"0","TIME_SYSTEM":"UTC","OBJECT_NAME":"STARLINK-3832","MEAN_MOTION_DOT":"0.00062427"},{"MEAN_MOTION_DDOT":"0.0000000000000","SEMIMAJOR_AXIS":"6727.990","OBJECT_TYPE":"PAYLOAD","NORAD_CAT_ID":"52647","SITE":"AFETR","RCS_SIZE":"LARGE","REF_FRAME":"TEME","FILE":"3505946","MEAN_ANOMALY":"216.8385","CENTER_NAME":"EARTH","ECCENTRICITY":"0.00028480","CLASSIFICATION_TYPE":"U","LAUNCH_DATE":"2022-05-14","RA_OF_ASC_NODE":"206.5752","TLE_LINE2":"2 52647  53.2131 206.5752 0002848   6.9323 216.8385 15.73166624  1301","MEAN_MOTION":"15.73166624","REV_AT_EPOCH":"130","ARG_OF_PERICENTER":"6.9323","GP_ID":"207180198","EPHEMERIS_TYPE":"0","TIME_SYSTEM":"UTC","OBJECT_NAME":"STARLINK-3846","PERIAPSIS":"347.939","COUNTRY_CODE":"US","MEAN_ELEMENT_THEORY":"SGP4","BSTAR":"0.00047634000000","MEAN_MOTION_DOT":"0.00066676","INCLINATION":"53.2131","EPOCH":"2022-06-30T22:00:00.999936","ELEMENT_SET_NO":"999","DECAY_DATE":null,"TLE_LINE1":"1 52647U 22052BB  22181.91667824  .00066676  00000-0  47634-3 0  9990","PERIOD":"91.535","OBJECT_ID":"2022-052BB","APOAPSIS":"351.771"},{"NORAD_CAT_ID":"52648","SITE":"AFETR","RCS_SIZE":"LARGE","SEMIMAJOR_AXIS":"6727.991","OBJECT_TYPE":"PAYLOAD","MEAN_MOTION_DDOT":"0.0000000000000","ARG_OF_PERICENTER":"16.3580","REV_AT_EPOCH":"130","LAUNCH_DATE":"2022-05-14","CLASSIFICATION_TYPE":"U","TLE_LINE2":"2 52648  53.2136 206.5814 0002565  16.3580 205.0349 15.73166275  1304","MEAN_MOTION":"15.73166275","RA_OF_ASC_NODE":"206.5814","ECCENTRICITY":"0.00025650","FILE":"3505946","REF_FRAME":"TEME","CENTER_NAME":"EARTH","MEAN_ANOMALY":"205.0349","MEAN_MOTION_DOT":"0.00048862","COUNTRY_CODE":"US","BSTAR":"0.00035101000000","MEAN_ELEMENT_THEORY":"SGP4","EPHEMERIS_TYPE":"0","OBJECT_NAME":"STARLINK-3854","TIME_SYSTEM":"UTC","GP_ID":"207179847","PERIAPSIS":"348.131","TLE_LINE1":"1 52648U 22052BC  22181.91667824  .00048862  00000-0  35101-3 0  9994","DECAY_DATE":null,"APOAPSIS":"351.582","OBJECT_ID":"2022-052BC","PERIOD":"91.535","ELEMENT_SET_NO":"999","INCLINATION":"53.2136","EPOCH":"2022-06-30T22:00:00.999936"},{"REF_FRAME":"TEME","FILE":"3505946","CENTER_NAME":"EARTH","MEAN_ANOMALY":"212.4318","ECCENTRICITY":"0.00032280","CLASSIFICATION_TYPE":"U","LAUNCH_DATE":"2022-05-14","RA_OF_ASC_NODE":"206.5765","MEAN_MOTION":"15.73169290","TLE_LINE2":"2 52649  53.2130 206.5765 0003228  10.7270 212.4318 15.73169290  1303","REV_AT_EPOCH":"130","ARG_OF_PERICENTER":"10.7270","MEAN_MOTION_DDOT":"0.0000000000000","SEMIMAJOR_AXIS":"6727.983","OBJECT_TYPE":"PAYLOAD","NORAD_CAT_ID":"52649","RCS_SIZE":"LARGE","SITE":"AFETR","INCLINATION":"53.2130","EPOCH":"2022-06-30T22:00:00.999936","ELEMENT_SET_NO":"999","DECAY_DATE":null,"TLE_LINE1":"1 52649U 22052BD  22181.91667824  .00050355  00000-0  36146-3 0  9995","PERIOD":"91.535","APOAPSIS":"352.020","OBJECT_ID":"2022-052BD","GP_ID":"207179696","OBJECT_NAME":"STARLINK-3868","EPHEMERIS_TYPE":"0","TIME_SYSTEM":"UTC","PERIAPSIS":"347.676","COUNTRY_CODE":"US","MEAN_ELEMENT_THEORY":"SGP4","BSTAR":"0.00036146000000","MEAN_MOTION_DOT":"0.00050355"},{"BSTAR":"0.00031819000000","MEAN_ELEMENT_THEORY":"SGP4","COUNTRY_CODE":"US","PERIAPSIS":"347.881","EPHEMERIS_TYPE":"0","OBJECT_NAME":"STARLINK-3891","TIME_SYSTEM":"UTC","GP_ID":"207179949","MEAN_MOTION_DOT":"0.00044203","ELEMENT_SET_NO":"999","EPOCH":"2022-06-30T22:00:00.999936","INCLINATION":"53.2133","APOAPSIS":"351.859","OBJECT_ID":"2022-052BE","PERIOD":"91.535","TLE_LINE1":"1 52650U 22052BE  22181.91667824  .00044203  00000-0  31819-3 0  9994","DECAY_DATE":null,"MEAN_MOTION_DDOT":"0.0000000000000","RCS_SIZE":"LARGE","SITE":"AFETR","NORAD_CAT_ID":"52650","OBJECT_TYPE":"PAYLOAD","SEMIMAJOR_AXIS":"6728.005","ECCENTRICITY":"0.00029560","MEAN_ANOMALY":"208.6550","CENTER_NAME":"EARTH","FILE":"3505946","REF_FRAME":"TEME","ARG_OF_PERICENTER":"15.7207","REV_AT_EPOCH":"130","MEAN_MOTION":"15.73161568","TLE_LINE2":"2 52650  53.2133 206.5748 0002956  15.7207 208.6550 15.73161568  1306","RA_OF_ASC_NODE":"206.5748","CLASSIFICATION_TYPE":"U","LAUNCH_DATE":"2022-05-14"},{"APOAPSIS":"460.985","OBJECT_ID":"2022-053A","PERIOD":"93.793","TLE_LINE1":"1 52656U 22053A   22181.91667824 -.00716678  00000-0 -22317-1 0  9996","DECAY_DATE":null,"EPOCH":"2022-06-30T22:00:00.999936","INCLINATION":"53.2175","ELEMENT_SET_NO":"999","MEAN_MOTION_DOT":"-0.00716678","PERIAPSIS":"459.092","EPHEMERIS_TYPE":"0","TIME_SYSTEM":"UTC","OBJECT_NAME":"STARLINK-4004","GP_ID":"207179596","BSTAR":"-0.02231700000000","MEAN_ELEMENT_THEORY":"SGP4","COUNTRY_CODE":"US","TLE_LINE2":"2 52656  53.2175  86.2011 0001384  55.1087 266.5819 15.35297571  1305","MEAN_MOTION":"15.35297571","RA_OF_ASC_NODE":"86.2011","CLASSIFICATION_TYPE":"U","LAUNCH_DATE":"2022-05-18","ARG_OF_PERICENTER":"55.1087","REV_AT_EPOCH":"130","MEAN_ANOMALY":"266.5819","CENTER_NAME":"EARTH","FILE":"3505946","REF_FRAME":"TEME","ECCENTRICITY":"0.00013840","OBJECT_TYPE":"PAYLOAD","SEMIMAJOR_AXIS":"6838.174","RCS_SIZE":"LARGE","SITE":"AFETR","NORAD_CAT_ID":"52656","MEAN_MOTION_DDOT":"0.0000000000000"},{"MEAN_MOTION_DOT":"-0.00716027","COUNTRY_CODE":"US","MEAN_ELEMENT_THEORY":"SGP4","BSTAR":"-0.02257500000000","GP_ID":"207180199","EPHEMERIS_TYPE":"0","TIME_SYSTEM":"UTC","OBJECT_NAME":"STARLINK-4084","PERIAPSIS":"460.270","DECAY_DATE":null,"TLE_LINE1":"1 52657U 22053B   22181.91667824 -.00716027  00000-0 -22575-1 0  9991","PERIOD":"93.817","APOAPSIS":"462.113","OBJECT_ID":"2022-053B","ELEMENT_SET_NO":"999","INCLINATION":"53.2175","EPOCH":"2022-06-30T22:00:00.999936","NORAD_CAT_ID":"52657","SITE":"AFETR","RCS_SIZE":"LARGE","SEMIMAJOR_AXIS":"6839.326","OBJECT_TYPE":"PAYLOAD","MEAN_MOTION_DDOT":"0.0000000000000","REV_AT_EPOCH":"130","ARG_OF_PERICENTER":"61.5354","CLASSIFICATION_TYPE":"U","LAUNCH_DATE":"2022-05-18","RA_OF_ASC_NODE":"86.1838","MEAN_MOTION":"15.34909446","TLE_LINE2":"2 52657  53.2175  86.1838 0001347  61.5354 244.1313 15.34909446  1300","ECCENTRICITY":"0.00013470","REF_FRAME":"TEME","FILE":"3505946","MEAN_ANOMALY":"244.1313","CENTER_NAME":"EARTH"},{"LAUNCH_DATE":"2022-05-18","CLASSIFICATION_TYPE":"U","TLE_LINE2":"2 52658  53.2175  86.1920 0001484  49.8410 264.1515 15.35099184  1303","MEAN_MOTION":"15.35099184","RA_OF_ASC_NODE":"86.1920","ARG_OF_PERICENTER":"49.8410","REV_AT_EPOCH":"130","FILE":"3505946","REF_FRAME":"TEME","MEAN_ANOMALY":"264.1515","CENTER_NAME":"EARTH","ECCENTRICITY":"0.00014840","SEMIMAJOR_AXIS":"6838.763","OBJECT_TYPE":"PAYLOAD","NORAD_CAT_ID":"52658","RCS_SIZE":"LARGE","SITE":"AFETR","MEAN_MOTION_DDOT":"0.0000000000000","TLE_LINE1":"1 52658U 22053C   22181.91667824 -.00716432  00000-0 -22451-1 0  9995","DECAY_DATE":null,"APOAPSIS":"461.643","OBJECT_ID":"2022-053C","PERIOD":"93.805","INCLINATION":"53.2175","EPOCH":"2022-06-30T22:00:00.999936","ELEMENT_SET_NO":"999","MEAN_MOTION_DOT":"-0.00716432","EPHEMERIS_TYPE":"0","OBJECT_NAME":"STARLINK-4082","TIME_SYSTEM":"UTC","GP_ID":"207179848","PERIAPSIS":"459.613","COUNTRY_CODE":"US","BSTAR":"-0.02245100000000","MEAN_ELEMENT_THEORY":"SGP4"}];
